QIANFAN-81              
1 63167U 25046J   25352.26595205  .00000140  00000+0  19778-3 0  9990
2 63167  88.9766 319.2997 0016534 101.9529 258.3477 13.51004104 48237
QIANFAN-82              
1 63168U 25046K   25352.22604734  .00000114  00000+0  15784-3 0  9999
2 63168  88.9766 319.3478 0014560 108.6304 251.6430 13.50977299 48211
QIANFAN-83              
1 63169U 25046L   25352.28238228  .00000139  00000+0  16408-3 0  9998
2 63169  88.9767 319.1075 0016093  95.5549 264.7444 13.61976193 48351
QIANFAN-84              
1 63170U 25046M   25352.25380792  .00000093  00000+0  12571-3 0  9997
2 63170  88.9766 319.4776 0017581 106.1069 254.2019 13.50987958 48140
QIANFAN-85              
1 63171U 25046N   25352.25060792  .00000133  00000+0  18758-3 0  9991
2 63171  88.9766 319.3497 0014931 107.5622 252.7162 13.50978040 48218
QIANFAN-86              
1 63172U 25046P   25352.25893603  .00000125  00000+0  17448-3 0  9993
2 63172  88.9768 319.2111 0012746 110.6314 249.6205 13.50977790 48290
QIANFAN-87              
1 63173U 25046Q   25352.23027392  .00000112  00000+0  15490-3 0  9997
2 63173  88.9764 319.3255 0013474 106.9092 253.3538 13.50975551 48224
QIANFAN-88              
1 63174U 25046R   25352.24657772  .00000135  00000+0  19059-3 0  9990
2 63174  88.9767 319.2785 0013738 113.9756 246.2835 13.50982168 48259
